0 COSMOS 2323 (GLONASS)
1 23736U 95068C   13280.12015814 -.00000034  00000-0  00000+0 0  5134
2 23736 066.6944 353.9461 0007211 198.9024 221.2420 02.13101533138669
0 COSMOS 2323 (GLONASS)
1 23736U 95068C   13283.79491494 -.00000052  00000-0  00000+0 0  5143
2 23736 066.6944 353.8266 0007201 199.2809 159.9754 02.13101670138732
0 COSMOS 2323 (GLONASS)
1 23736U 95068C   13288.49368091 -.00000062  00000-0  00000+0 0  5153
2 23736 066.6945 353.6744 0007235 200.4197 163.5255 02.13101830138841
0 COSMOS 2323 (GLONASS)
1 23736U 95068C   13290.86890108 -.00000056  00000-0  00000+0 0  5160
2 23736 066.6945 353.5975 0007251 200.4233 185.6904 02.13101856138894
0 COSMOS 2323 (GLONASS)
1 23736U 95068C   13293.68642395 -.00000058  00000-0  00000+0 0  5179
2 23736 066.6943 353.5063 0007257 200.6384 186.9607 02.13101831138959
